start=new Date('2023-03-26T00:00:00.000Z').valueOf();
sats=[{"REF_FRAME":"TEME","TLE_LINE1":"1 48018U 21024AT  23084.83951678  .00021833  00000-0  14814-2 0  9991","INCLINATION":"53.0515","RA_OF_ASC_NODE":"129.4546","GP_ID":"228869315","OBJECT_TYPE":"PAYLOAD","MEAN_MOTION_DOT":"0.00021833","APOAPSIS":"548.267","PERIOD":"95.594","ECCENTRICITY":"0.00013770","ARG_OF_PERICENTER":"72.2855","EPOCH":"2023-03-25T20:08:54.249792","DECAY_DATE":null,"OBJECT_ID":"2021-024AT","ELEMENT_SET_NO":"999","TLE_LINE2":"2 48018  53.0515 129.4546 0001377  72.2855 287.8284 15.06367320112017","LAUNCH_DATE":"2021-03-24","MEAN_MOTION_DDOT":"0.0000000000000","OBJECT_NAME":"STARLINK-2282","MEAN_ANOMALY":"287.8284","EPHEMERIS_TYPE":"0","COUNTRY_CODE":"US","NORAD_CAT_ID":"48018","SEMIMAJOR_AXIS":"6925.449","CENTER_NAME":"EARTH","MEAN_MOTION":"15.06367320","CLASSIFICATION_TYPE":"U","FILE":"3871104","RCS_SIZE":"LARGE","PERIAPSIS":"546.360","BSTAR":"0.00148140000000","TIME_SYSTEM":"UTC","MEAN_ELEMENT_THEORY":"SGP4","REV_AT_EPOCH":"11201","SITE":"AFETR"},{"SITE":"AFETR","REV_AT_EPOCH":"11208","BSTAR":"0.00019559000000","MEAN_ELEMENT_THEORY":"SGP4","TIME_SYSTEM":"UTC","CLASSIFICATION_TYPE":"U","MEAN_MOTION":"15.06450086","RCS_SIZE":"LARGE","FILE":"3871104","PERIAPSIS":"546.007","CENTER_NAME":"EARTH","NORAD_CAT_ID":"48019","SEMIMAJOR_AXIS":"6925.195","COUNTRY_CODE":"US","OBJECT_NAME":"STARLINK-2285","MEAN_ANOMALY":"257.6433","EPHEMERIS_TYPE":"0","MEAN_MOTION_DDOT":"0.0000000000000","TLE_LINE2":"2 48019  53.0552 119.4857 0001521 102.4726 257.6433 15.06450086112087","LAUNCH_DATE":"2021-03-24","OBJECT_ID":"2021-024AU","ELEMENT_SET_NO":"999","ARG_OF_PERICENTER":"102.4726","EPOCH":"2023-03-25T18:55:46.322112","DECAY_DATE":null,"APOAPSIS":"548.113","ECCENTRICITY":"0.00015210","PERIOD":"95.589","MEAN_MOTION_DOT":"0.00002637","OBJECT_TYPE":"PAYLOAD","TLE_LINE1":"1 48019U 21024AU  23084.78873058  .00002637  00000-0  19559-3 0  9994","INCLINATION":"53.0552","RA_OF_ASC_NODE":"119.4857","GP_ID":"228869565","REF_FRAME":"TEME"},{"OBJECT_ID":"2021-024AV","ELEMENT_SET_NO":"999","EPOCH":"2023-03-25T16:46:30.903456","ARG_OF_PERICENTER":"80.4059","DECAY_DATE":null,"MEAN_MOTION_DDOT":"0.0000000000000","TLE_LINE2":"2 48020  53.0544  75.2782 0001962  80.4059 279.7152 15.06419522112699","LAUNCH_DATE":"2021-03-24","INCLINATION":"53.0544","RA_OF_ASC_NODE":"75.2782","TLE_LINE1":"1 48020U 21024AV  23084.69896879  .00006005  00000-0  42144-3 0  9991","GP_ID":"228870317","REF_FRAME":"TEME","APOAPSIS":"548.512","ECCENTRICITY":"0.00019620","PERIOD":"95.591","MEAN_MOTION_DOT":"0.00006005","OBJECT_TYPE":"PAYLOAD","CLASSIFICATION_TYPE":"U","MEAN_MOTION":"15.06419522","PERIAPSIS":"545.795","RCS_SIZE":"LARGE","FILE":"3871104","CENTER_NAME":"EARTH","SITE":"AFETR","REV_AT_EPOCH":"11269","BSTAR":"0.00042144000000","MEAN_ELEMENT_THEORY":"SGP4","TIME_SYSTEM":"UTC","MEAN_ANOMALY":"279.7152","OBJECT_NAME":"STARLINK-2294","EPHEMERIS_TYPE":"0","SEMIMAJOR_AXIS":"6925.289","NORAD_CAT_ID":"48020","COUNTRY_CODE":"US"},{"EPHEMERIS_TYPE":"0","MEAN_ANOMALY":"287.6810","OBJECT_NAME":"STARLINK-2301","COUNTRY_CODE":"US","SEMIMAJOR_AXIS":"6925.333","NORAD_CAT_ID":"48021","CENTER_NAME":"EARTH","PERIAPSIS":"545.479","RCS_SIZE":"LARGE","FILE":"3871104","CLASSIFICATION_TYPE":"U","MEAN_MOTION":"15.06405129","TIME_SYSTEM":"UTC","MEAN_ELEMENT_THEORY":"SGP4","BSTAR":"0.00004793000000","SITE":"AFETR","REV_AT_EPOCH":"11264","REF_FRAME":"TEME","GP_ID":"228871068","INCLINATION":"53.0535","RA_OF_ASC_NODE":"79.8272","TLE_LINE1":"1 48021U 21024AW  23084.71136406  .00000432  00000-0  47930-4 0  9995","OBJECT_TYPE":"PAYLOAD","MEAN_MOTION_DOT":"0.00000432","PERIOD":"95.592","ECCENTRICITY":"0.00024820","APOAPSIS":"548.917","DECAY_DATE":null,"ARG_OF_PERICENTER":"72.4450","EPOCH":"2023-03-25T17:04:21.854784","ELEMENT_SET_NO":"999","OBJECT_ID":"2021-024AW","LAUNCH_DATE":"2021-03-24","TLE_LINE2":"2 48021  53.0535  79.8272 0002482  72.4450 287.6810 15.06405129112640","MEAN_MOTION_DDOT":"0.0000000000000"},{"MEAN_ELEMENT_THEORY":"SGP4","TIME_SYSTEM":"UTC","BSTAR":"0.00010806000000","SITE":"AFETR","REV_AT_EPOCH":"11187","CENTER_NAME":"EARTH","RCS_SIZE":"LARGE","FILE":"3871104","PERIAPSIS":"545.963","CLASSIFICATION_TYPE":"U","MEAN_MOTION":"15.06422853","COUNTRY_CODE":"US","SEMIMAJOR_AXIS":"6925.279","NORAD_CAT_ID":"48022","EPHEMERIS_TYPE":"0","OBJECT_NAME":"STARLINK-2298","MEAN_ANOMALY":"287.9231","LAUNCH_DATE":"2021-03-24","TLE_LINE2":"2 48022  53.0522 139.3906 0001704  72.1944 287.9231 15.06422853111871","MEAN_MOTION_DDOT":"0.0000000000000","DECAY_DATE":null,"ARG_OF_PERICENTER":"72.1944","EPOCH":"2023-03-25T20:55:16.916448","ELEMENT_SET_NO":"999","OBJECT_ID":"2021-024AX","MEAN_MOTION_DOT":"0.00001329","OBJECT_TYPE":"PAYLOAD","PERIOD":"95.591","ECCENTRICITY":"0.00017040","APOAPSIS":"548.324","REF_FRAME":"TEME","GP_ID":"228869816","TLE_LINE1":"1 48022U 21024AX  23084.87172357  .00001329  00000-0  10806-3 0  9995","INCLINATION":"53.0522","RA_OF_ASC_NODE":"139.3906"},{"MEAN_ANOMALY":"284.7205","OBJECT_NAME":"STARLINK-2292","EPHEMERIS_TYPE":"0","COUNTRY_CODE":"US","NORAD_CAT_ID":"48023","SEMIMAJOR_AXIS":"6925.533","CENTER_NAME":"EARTH","CLASSIFICATION_TYPE":"U","MEAN_MOTION":"15.06339911","PERIAPSIS":"546.353","RCS_SIZE":"LARGE","FILE":"3871104","BSTAR":"0.00219700000000","MEAN_ELEMENT_THEORY":"SGP4","TIME_SYSTEM":"UTC","REV_AT_EPOCH":"11187","SITE":"AFETR","REF_FRAME":"TEME","INCLINATION":"53.0519","RA_OF_ASC_NODE":"139.1595","TLE_LINE1":"1 48023U 21024AY  23084.86062610  .00032541  00000-0  21970-2 0  9998","GP_ID":"228870066","OBJECT_TYPE":"PAYLOAD","MEAN_MOTION_DOT":"0.00032541","APOAPSIS":"548.443","PERIOD":"95.596","ECCENTRICITY":"0.00015090","EPOCH":"2023-03-25T20:39:18.095040","ARG_OF_PERICENTER":"75.3951","DECAY_DATE":null,"OBJECT_ID":"2021-024AY","ELEMENT_SET_NO":"999","TLE_LINE2":"2 48023  53.0519 139.1595 0001509  75.3951 284.7205 15.06339911111874","LAUNCH_DATE":"2021-03-24","MEAN_MOTION_DDOT":"0.0000000000000"},{"ELEMENT_SET_NO":"999","OBJECT_ID":"2021-024BB","DECAY_DATE":null,"ARG_OF_PERICENTER":"89.5877","EPOCH":"2023-03-25T15:22:50.683296","MEAN_MOTION_DDOT":"0.0000000000000","LAUNCH_DATE":"2021-03-24","TLE_LINE2":"2 48026  53.0518 145.1443 0001570  89.5877 270.5291 15.06470537111718","GP_ID":"228870818","RA_OF_ASC_NODE":"145.1443","INCLINATION":"53.0518","TLE_LINE1":"1 48026U 21024BB  23084.64086439  .00037321  00000-0  25064-2 0  9991","REF_FRAME":"TEME","ECCENTRICITY":"0.00015700","PERIOD":"95.588","APOAPSIS":"548.085","MEAN_MOTION_DOT":"0.00037321","OBJECT_TYPE":"PAYLOAD","PERIAPSIS":"545.910","FILE":"3871104","RCS_SIZE":"LARGE","CLASSIFICATION_TYPE":"U","MEAN_MOTION":"15.06470537","CENTER_NAME":"EARTH","SITE":"AFETR","REV_AT_EPOCH":"11171","MEAN_ELEMENT_THEORY":"SGP4","TIME_SYSTEM":"UTC","BSTAR":"0.00250640000000","EPHEMERIS_TYPE":"0","MEAN_ANOMALY":"270.5291","OBJECT_NAME":"STARLINK-2278","NORAD_CAT_ID":"48026","SEMIMAJOR_AXIS":"6925.132","COUNTRY_CODE":"US"},{"NORAD_CAT_ID":"48027","SEMIMAJOR_AXIS":"6924.656","COUNTRY_CODE":"US","EPHEMERIS_TYPE":"0","OBJECT_NAME":"STARLINK-2300","MEAN_ANOMALY":"270.5377","REV_AT_EPOCH":"11208","SITE":"AFETR","MEAN_ELEMENT_THEORY":"SGP4","TIME_SYSTEM":"UTC","BSTAR":"0.00051535000000","FILE":"3871104","RCS_SIZE":"LARGE","PERIAPSIS":"545.530","CLASSIFICATION_TYPE":"U","MEAN_MOTION":"15.06626116","CENTER_NAME":"EARTH","PERIOD":"95.578","ECCENTRICITY":"0.00014300","APOAPSIS":"547.511","OBJECT_TYPE":"PAYLOAD","MEAN_MOTION_DOT":"0.00007449","GP_ID":"228870568","TLE_LINE1":"1 48027U 21024BC  23084.79922787  .00007449  00000-0  51535-3 0  9994","RA_OF_ASC_NODE":"119.4279","INCLINATION":"53.0531","REF_FRAME":"TEME","MEAN_MOTION_DDOT":"0.0000000000000","LAUNCH_DATE":"2021-03-24","TLE_LINE2":"2 48027  53.0531 119.4279 0001430  89.5776 270.5377 15.06626116112080","ELEMENT_SET_NO":"999","OBJECT_ID":"2021-024BC","DECAY_DATE":null,"ARG_OF_PERICENTER":"89.5776","EPOCH":"2023-03-25T19:10:53.287968"},{"BSTAR":"0.00175480000000","MEAN_ELEMENT_THEORY":"SGP4","TIME_SYSTEM":"UTC","REV_AT_EPOCH":"11271","SITE":"AFETR","CENTER_NAME":"EARTH","CLASSIFICATION_TYPE":"U","MEAN_MOTION":"15.06471440","RCS_SIZE":"LARGE","FILE":"3871104","PERIAPSIS":"546.033","COUNTRY_CODE":"US","NORAD_CAT_ID":"48028","SEMIMAJOR_AXIS":"6925.130","OBJECT_NAME":"STARLINK-2264","MEAN_ANOMALY":"280.0504","EPHEMERIS_TYPE":"0","TLE_LINE2":"2 48028  53.0531  76.3850 0001388  80.0641 280.0504 15.06471440112712","LAUNCH_DATE":"2021-03-24","MEAN_MOTION_DDOT":"0.0000000000000","EPOCH":"2023-03-25T10:50:53.658816","ARG_OF_PERICENTER":"80.0641","DECAY_DATE":null,"OBJECT_ID":"2021-024BD","ELEMENT_SET_NO":"999","OBJECT_TYPE":"PAYLOAD","MEAN_MOTION_DOT":"0.00026004","APOAPSIS":"547.956","PERIOD":"95.588","ECCENTRICITY":"0.00013880","REF_FRAME":"TEME","TLE_LINE1":"1 48028U 21024BD  23084.45200994  .00026004  00000-0  17548-2 0  9990","INCLINATION":"53.0531","RA_OF_ASC_NODE":"76.3850","GP_ID":"228869316"},{"CLASSIFICATION_TYPE":"U","MEAN_MOTION":"15.06387104","PERIAPSIS":"546.201","RCS_SIZE":"LARGE","FILE":"3871104","CENTER_NAME":"EARTH","SITE":"AFETR","REV_AT_EPOCH":"11187","BSTAR":"-0.00322210000000","MEAN_ELEMENT_THEORY":"SGP4","TIME_SYSTEM":"UTC","MEAN_ANOMALY":"270.1491","OBJECT_NAME":"STARLINK-2299","EPHEMERIS_TYPE":"0","NORAD_CAT_ID":"48029","SEMIMAJOR_AXIS":"6925.388","COUNTRY_CODE":"US","OBJECT_ID":"2021-024BE","ELEMENT_SET_NO":"999","ARG_OF_PERICENTER":"89.9672","EPOCH":"2023-03-25T20:07:27.156000","DECAY_DATE":null,"MEAN_MOTION_DDOT":"0.0000000000000","TLE_LINE2":"2 48029  53.0528 139.2574 0001519  89.9672 270.1491 15.06387104111873","LAUNCH_DATE":"2021-03-24","RA_OF_ASC_NODE":"139.2574","INCLINATION":"53.0528","TLE_LINE1":"1 48029U 21024BE  23084.83850875 -.00047936  00000-0 -32221-2 0  9996","GP_ID":"228869566","REF_FRAME":"TEME","APOAPSIS":"548.305","ECCENTRICITY":"0.00015190","PERIOD":"95.593","OBJECT_TYPE":"PAYLOAD","MEAN_MOTION_DOT":"-0.00047936"}];
